{
  "type": "FeatureCollection",
  "features": [
    {
      "type": "Feature",
      "properties": {
        "norad_id": 35142,
        "name": "FENGYUN 1C DEB",
        "group": "fengyun-1c-debris",
        "lat": 80.44297691452455,
        "lon": -85.83228482055023,
        "alt_km": 944.6669318039112,
        "timestamp": "2025-12-19T06:59:44.195806+00:00",
        "meta_object_name": "FENGYUN 1C DEB",
        "meta_object_id": "1999-025DLW",
        "meta_epoch": "2025-12-16T06:06:10.234368",
        "meta_mean_motion": 13.90508934,
        "meta_eccentricity": 0.01077729,
        "meta_inclination": 99.0452,
        "meta_ra_of_asc_node": 342.3158,
        "meta_arg_of_pericenter": 204.4667,
        "meta_mean_anomaly": 168.1585,
        "meta_ephemeris_type": 0,
        "meta_classification_type": "U",
        "meta_norad_cat_id": 35142,
        "meta_element_set_no": 999,
        "meta_rev_at_epoch": 85738,
        "meta_bstar": 0.00020062048,
        "meta_mean_motion_dot": 2.18e-06,
        "meta_mean_motion_ddot": 0,
        "tle_line1": "1 35142U 99025DLW 25350.25428512  .00000218  00000+0  20062-3 0  9997",
        "tle_line2": "2 35142  99.0452 342.3158 0107772 204.4667 168.1585 13.90508934857382"
      },
      "geometry": {
        "type": "Point",
        "coordinates": [
          -85.83228482055023,
          80.44297691452455
        ]
      }
    },
    {
      "type": "Feature",
      "properties": {
        "norad_id": 35144,
        "name": "FENGYUN 1C DEB",
        "group": "fengyun-1c-debris",
        "lat": 11.4082611049054,
        "lon": -69.27548107726687,
        "alt_km": 715.4144804372918,
        "timestamp": "2025-12-19T06:59:44.195816+00:00",
        "meta_object_name": "FENGYUN 1C DEB",
        "meta_object_id": "1999-025DLY",
        "meta_epoch": "2025-12-15T03:29:25.584864",
        "meta_mean_motion": 14.59259684,
        "meta_eccentricity": 0.00266192,
        "meta_inclination": 98.6997,
        "meta_ra_of_asc_node": 104.611,
        "meta_arg_of_pericenter": 353.8009,
        "meta_mean_anomaly": 6.2856,
        "meta_ephemeris_type": 0,
        "meta_classification_type": "U",
        "meta_norad_cat_id": 35144,
        "meta_element_set_no": 999,
        "meta_rev_at_epoch": 65248,
        "meta_bstar": 0.0015089834,
        "meta_mean_motion_dot": 7.114e-05,
        "meta_mean_motion_ddot": 0,
        "tle_line1": "1 35144U 99025DLY 25349.14543501  .00007114  00000+0  15090-2 0  9997",
        "tle_line2": "2 35144  98.6997 104.6110 0026619 353.8009   6.2856 14.59259684652487"
      },
      "geometry": {
        "type": "Point",
        "coordinates": [
          -69.27548107726687,
          11.4082611049054
        ]
      }
    },
    {
      "type": "Feature",
      "properties": {
        "norad_id": 35147,
        "name": "FENGYUN 1C DEB",
        "group": "fengyun-1c-debris",
        "lat": -4.797162643018495,
        "lon": 68.49959086686039,
        "alt_km": 669.6046185519381,
        "timestamp": "2025-12-19T06:59:44.195826+00:00",
        "meta_object_name": "FENGYUN 1C DEB",
        "meta_object_id": "1999-025DMB",
        "meta_epoch": "2025-12-18T11:28:26.530176",
        "meta_mean_motion": 14.74466658,
        "meta_eccentricity": 0.00274951,
        "meta_inclination": 99.4866,
        "meta_ra_of_asc_node": 66.7444,
        "meta_arg_of_pericenter": 181.7637,
        "meta_mean_anomaly": 178.3474,
        "meta_ephemeris_type": 0,
        "meta_classification_type": "U",
        "meta_norad_cat_id": 35147,
        "meta_element_set_no": 999,
        "meta_rev_at_epoch": 74389,
        "meta_bstar": 0.0021540097,
        "meta_mean_motion_dot": 0.0001436,
        "meta_mean_motion_ddot": 0,
        "tle_line1": "1 35147U 99025DMB 25352.47808484  .00014360  00000+0  21540-2 0  9992",
        "tle_line2": "2 35147  99.4866  66.7444 0027495 181.7637 178.3474 14.74466658743891"
      },
      "geometry": {
        "type": "Point",
        "coordinates": [
          68.49959086686039,
          -4.797162643018495
        ]
      }
    },
    {
      "type": "Feature",
      "properties": {
        "norad_id": 35152,
        "name": "FENGYUN 1C DEB",
        "group": "fengyun-1c-debris",
        "lat": -61.14481574781988,
        "lon": -165.4921710788402,
        "alt_km": 912.5829615852899,
        "timestamp": "2025-12-19T06:59:44.195836+00:00",
        "meta_object_name": "FENGYUN 1C DEB",
        "meta_object_id": "1999-025DMG",
        "meta_epoch": "2025-12-16T18:13:57.032832",
        "meta_mean_motion": 13.7643783,
        "meta_eccentricity": 0.01945259,
        "meta_inclination": 99.8194,
        "meta_ra_of_asc_node": 173.5777,
        "meta_arg_of_pericenter": 5.0809,
        "meta_mean_anomaly": 355.2255,
        "meta_ephemeris_type": 0,
        "meta_classification_type": "U",
        "meta_norad_cat_id": 35152,
        "meta_element_set_no": 999,
        "meta_rev_at_epoch": 62248,
        "meta_bstar": 0.00057948786,
        "meta_mean_motion_dot": 6.03e-06,
        "meta_mean_motion_ddot": 0,
        "tle_line1": "1 35152U 99025DMG 25350.75968788  .00000603  00000+0  57949-3 0  9999",
        "tle_line2": "2 35152  99.8194 173.5777 0194525   5.0809 355.2255 13.76437830622484"
      },
      "geometry": {
        "type": "Point",
        "coordinates": [
          -165.4921710788402,
          -61.14481574781988
        ]
      }
    },
    {
      "type": "Feature",
      "properties": {
        "norad_id": 35153,
        "name": "FENGYUN 1C DEB",
        "group": "fengyun-1c-debris",
        "lat": -69.44480488029899,
        "lon": -89.55732526646172,
        "alt_km": 739.0250615582072,
        "timestamp": "2025-12-19T06:59:44.195846+00:00",
        "meta_object_name": "FENGYUN 1C DEB",
        "meta_object_id": "1999-025DMH",
        "meta_epoch": "2025-12-18T10:08:17.005920",
        "meta_mean_motion": 14.73766835,
        "meta_eccentricity": 0.01710623,
        "meta_inclination": 98.9028,
        "meta_ra_of_asc_node": 244.7793,
        "meta_arg_of_pericenter": 65.5393,
        "meta_mean_anomaly": 296.3548,
        "meta_ephemeris_type": 0,
        "meta_classification_type": "U",
        "meta_norad_cat_id": 35153,
        "meta_element_set_no": 999,
        "meta_rev_at_epoch": 97301,
        "meta_bstar": 0.00030983329,
        "meta_mean_motion_dot": 2.49e-05,
        "meta_mean_motion_ddot": 0,
        "tle_line1": "1 35153U 99025DMH 25352.42241905  .00002490  00000+0  30983-3 0  9996",
        "tle_line2": "2 35153  98.9028 244.7793 0171062  65.5393 296.3548 14.73766835973016"
      },
      "geometry": {
        "type": "Point",
        "coordinates": [
          -89.55732526646172,
          -69.44480488029899
        ]
      }
    },
    {
      "type": "Feature",
      "properties": {
        "norad_id": 35154,
        "name": "FENGYUN 1C DEB",
        "group": "fengyun-1c-debris",
        "lat": 22.782477918537847,
        "lon": 111.18459942301688,
        "alt_km": 699.4495039410886,
        "timestamp": "2025-12-19T06:59:44.195856+00:00",
        "meta_object_name": "FENGYUN 1C DEB",
        "meta_object_id": "1999-025DMJ",
        "meta_epoch": "2025-12-18T03:48:47.568096",
        "meta_mean_motion": 14.18905648,
        "meta_eccentricity": 0.01791641,
        "meta_inclination": 99.422,
        "meta_ra_of_asc_node": 113.9802,
        "meta_arg_of_pericenter": 27.2396,
        "meta_mean_anomaly": 333.8038,
        "meta_ephemeris_type": 0,
        "meta_classification_type": "U",
        "meta_norad_cat_id": 35154,
        "meta_element_set_no": 999,
        "meta_rev_at_epoch": 64654,
        "meta_bstar": 0.00023097044,
        "meta_mean_motion_dot": 5.14e-06,
        "meta_mean_motion_ddot": 0,
        "tle_line1": "1 35154U 99025DMJ 25352.15888389  .00000514  00000+0  23097-3 0  9993",
        "tle_line2": "2 35154  99.4220 113.9802 0179164  27.2396 333.8038 14.18905648646546"
      },
      "geometry": {
        "type": "Point",
        "coordinates": [
          111.18459942301688,
          22.782477918537847
        ]
      }
    },
    {
      "type": "Feature",
      "properties": {
        "norad_id": 35155,
        "name": "FENGYUN 1C DEB",
        "group": "fengyun-1c-debris",
        "lat": 26.691759099438897,
        "lon": -170.9908652943182,
        "alt_km": 829.5154484139593,
        "timestamp": "2025-12-19T06:59:44.195866+00:00",
        "meta_object_name": "FENGYUN 1C DEB",
        "meta_object_id": "1999-025DMK",
        "meta_epoch": "2025-12-13T11:32:29.448096",
        "meta_mean_motion": 14.19285709,
        "meta_eccentricity": 0.00260991,
        "meta_inclination": 98.5012,
        "meta_ra_of_asc_node": 359.121,
        "meta_arg_of_pericenter": 70.7543,
        "meta_mean_anomaly": 289.6454,
        "meta_ephemeris_type": 0,
        "meta_classification_type": "U",
        "meta_norad_cat_id": 35155,
        "meta_element_set_no": 999,
        "meta_rev_at_epoch": 72724,
        "meta_bstar": 0.00090034288,
        "meta_mean_motion_dot": 1.854e-05,
        "meta_mean_motion_ddot": 0,
        "tle_line1": "1 35155U 99025DMK 25347.48089639  .00001854  00000+0  90034-3 0  9998",
        "tle_line2": "2 35155  98.5012 359.1210 0026099  70.7543 289.6454 14.19285709727245"
      },
      "geometry": {
        "type": "Point",
        "coordinates": [
          -170.9908652943182,
          26.691759099438897
        ]
      }
    }
  ]
}